[{"OBJECT_NAME":"POLYITAN-1","OBJECT_ID":"2014-033AJ","EPOCH":"2026-03-09T22:27:50.258304","MEAN_MOTION":15.29568085,"ECCENTRICITY":0.00093607,"INCLINATION":98.1053,"RA_OF_ASC_NODE":86.0432,"ARG_OF_PERICENTER":127.248,"MEAN_ANOMALY":232.9614,"EPHEMERIS_TYPE":0,"CLASSIFICATION_TYPE":"U","NORAD_CAT_ID":40042,"ELEMENT_SET_NO":999,"REV_AT_EPOCH":63840,"BSTAR":0.00083772474,"MEAN_MOTION_DOT":0.00024003,"MEAN_MOTION_DDOT":0},{"OBJECT_NAME":"STARLINK-32829","OBJECT_ID":"2025-034W","EPOCH":"2026-03-09T23:13:03.328896","MEAN_MOTION":15.30206104,"ECCENTRICITY":0.00010361,"INCLINATION":53.1583,"RA_OF_ASC_NODE":270.0223,"ARG_OF_PERICENTER":79.4349,"MEAN_ANOMALY":280.6768,"EPHEMERIS_TYPE":0,"CLASSIFICATION_TYPE":"U","NORAD_CAT_ID":63049,"ELEMENT_SET_NO":999,"REV_AT_EPOCH":5894,"BSTAR":0.0012548863,"MEAN_MOTION_DOT":0.00036999,"MEAN_MOTION_DDOT":0}]
